M2 PATHFINDER           
1 45727U 20037E   26202.49275150  .00001866  00000+0  13659-3 0  9999
2 45727  97.8142  34.1129 0012333  42.4050 317.8126 15.04807577330654
NETSAT-4                
1 46504U 20068U   26202.26981883  .00013816  00000+0  29595-3 0  9993
2 46504  97.8612 213.2778 0005501 172.2296 187.9038 15.44889408321030
NETSAT-3                
1 46505U 20068V   26201.97761751  .00013574  00000+0  30240-3 0  9991
2 46505  97.8664 211.1373 0004525 187.9460 172.1715 15.43735580320898
NETSAT-1                
1 46506U 20068W   26202.48924172  .00011331  00000+0  33254-3 0  9994
2 46506  97.8765 205.6071 0002895 226.4214 133.6788 15.35341622320565
NETSAT-2                
1 46507U 20068X   26202.45318502  .00021537  00000+0  42279-3 0  9992
2 46507  97.8624 213.5042 0003066 183.5798 176.5429 15.47350099321039
GREENCUBE (IO-117)      
1 53109U 22080E   26202.26867320 -.00000003  00000+0  00000+0 0  9998
2 53109  70.1384 286.3946 0009377 282.6707  77.2904  6.42583331 94253
SITRO-AIS 5 (KATYS)     
1 57176U 23091L   26202.60567895  .00010503  00000+0  36196-3 0  9995
2 57176  97.5039 266.8466 0009983 349.0614  11.0408 15.30155332169609
SITRO-AIS 6 (CHIRKIN)   
1 57192U 23091AC  26202.59989673  .00008958  00000+0  34530-3 0  9994
2 57192  97.5046 265.7741 0010523 353.7712   6.3394 15.26512220169533
SITRO-AIS 8 (ANOKHIN)   
1 57193U 23091AD  26202.62627567  .00013144  00000+0  41456-3 0  9998
2 57193  97.5034 268.6000 0008880 343.7652  16.3304 15.32967175169729
SITRO-AIS 7 (FARTUSHNIY)
1 57194U 23091AE  26202.61026130  .00008276  00000+0  32244-3 0  9992
2 57194  97.5042 265.5910 0010461 355.0892   5.0242 15.26183814169522
SITRO-AIS 10 (BURDAEV)  
1 57199U 23091AK  26202.63901148  .00019195  00000+0  48585-3 0  9997
2 57199  97.5059 274.0325 0004455 311.9648  48.1217 15.39788720170068
SITRO-AIS 9 (SHCHUKIN)  
1 57201U 23091AM  26202.61169875  .00018930  00000+0  48738-3 0  9998
2 57201  97.5057 273.7067 0004712 312.5344  47.5503 15.39268530170046
SITRO-AIS 12 (SMIRENNIY)
1 57204U 23091AQ  26202.59575295  .00019033  00000+0  48531-3 0  9991
2 57204  97.5069 274.1794 0004360 304.2088  55.8744 15.39565498170060
SITRO-AIS 11 (SHEFFER)  
1 57208U 23091AU  26202.59941957  .00019561  00000+0  49144-3 0  9994
2 57208  97.5068 274.4519 0004291 303.8822  56.2015 15.40014119170084
SITRO-AIS 25            
1 59066U 24039R   26202.61124727  .00002467  00000+0  19330-3 0  9993
2 59066  95.3886 258.7476 0143422 206.8688 152.5061 14.93667396129860
SITRO-AIS 26            
1 59067U 24039S   26202.61737646  .00002170  00000+0  17118-3 0  9997
2 59067  95.3889 258.6420 0143693 207.4572 151.9011 14.93458840129850
SITRO-AIS 27            
1 59068U 24039T   26202.64489463  .00003597  00000+0  27934-3 0  9993
2 59068  95.3891 258.9488 0142785 205.8297 153.5754 14.93886034129883
SITRO-AIS 28            
1 59071U 24039U   26202.62156137  .00002719  00000+0  21171-3 0  9996
2 59071  95.3888 258.9820 0142757 205.8008 153.6052 14.93915908129887
GRBBETA                 
1 60237U 24128C   26202.19826995  .00002318  00000+0  16706-3 0  9992
2 60237  61.9889  96.9197 0036262 142.0386 218.3274 15.06835113111390
OOV-CUBE (TUBSAT-30)    
1 60240U 24128F   26202.45472968  .00001434  00000+0  12029-3 0  9994
2 60240  61.9942 106.0728 0040288 141.4397 218.9585 15.02891484111261
ROBUSTA-3A (MEDITERRAN*)
1 60243U 24128J   26202.39491595  .00005590  00000+0  33111-3 0  9999
2 60243  61.9861  87.2386 0037256 135.0234 225.3890 15.12041475111599
LASARSAT                
1 62391U 24247Q   26202.06206775  .00027288  00000+0  50950-3 0  9993
2 62391  44.9738  71.5646 0008248 202.6776 157.3752 15.48302336 88561
CROCUBE                 
1 62394U 24247T   26202.65944481  .00041735  00000+0  71515-3 0  9997
2 62394  44.9713  64.9220 0008646 212.7388 147.2968 15.50548927 88696
FORESAIL-1 PRIME        
1 66778U 25276DS  26202.45252716  .00003328  00000+0  16241-3 0  9992
2 66778  97.4183 275.0997 0002371  29.5644 330.5724 15.18971994 35602
KNACKSAT-2              
1 67683U 98067XZ  26202.01445164  .00044153  00000+0  48284-3 0  9992
2 67683  51.6271 123.9445 0007840 347.8251  12.2553 15.62823140 25569
